ANIK F2                 
1 28378U 04027A   17173.62769495 -.00000057  00000-0  00000-0 0  9991
2 28378   0.0313  44.2700 0000567 213.7286 127.8837  1.00271856  8386
AMAZONAS 1              
1 28393U 04031A   17170.20257858 -.00000248  00000-0  00000-0 0  9991
2 28393   1.7559  83.7204 0004122  17.1878 203.2272  1.00266682 47133
AMC-15                  
1 28446U 04041A   17173.62958240 -.00000096  00000-0  00000-0 0  9994
2 28446   0.0169   3.4356 0002229  99.3721 289.7905  1.00271465 46487
AMC-16                  
1 28472U 04048A   17173.54910400 -.00000213  00000-0  00000-0 0  9998
2 28472   0.0216  36.3192 0002353  51.9264 295.3473  1.00271730 45854
NSS-10 (AMC-12)         
1 28526U 05003A   17173.86577215 -.00000259  00000-0  00000-0 0  9998
2 28526   0.0145 353.2917 0002694 111.3416  80.8133  1.00270451 45410
XTAR-EUR                
1 28542U 05005A   17173.16802090  .00000145  00000-0  00000-0 0  9996
2 28542   0.0103  41.5738 0001931  46.3840 272.0650  1.00272811 45300
XM-3 (RHYTHM)           
1 28626U 05008A   17173.43326105 -.00000212  00000-0  00000-0 0  9996
2 28626   0.0168 172.7077 0000299 121.6966  47.2654  1.00270872 45153
INMARSAT 4-F1           
1 28628U 05009A   17172.88395448 -.00000268  00000-0  00000-0 0  9994
2 28628   2.8769  12.0869 0002647  81.6845 278.2071  1.00271860 44760
APSTAR 6                
1 28638U 05012A   17173.86195265 -.00000326  00000-0  00000-0 0  9998
2 28638   0.0263  53.2989 0002506  47.6347 254.6066  1.00271815 69504
SPACEWAY 1              
1 28644U 05015A   17173.52543196 -.00000109  00000-0  00000-0 0  9990
2 28644   0.0477 188.7420 0000340 160.1109   8.2652  1.00271102 13684
DIRECTV 8               
1 28659U 05019A   17173.52778061 -.00000122  00000-0  00000-0 0  9996
2 28659   0.0116  35.9713 0002796  55.9523 268.1081  1.00271077 44235
GALAXY 28 (G-28)        
1 28702U 05022A   17173.33101543 -.00000192  00000-0  00000-0 0  9990
2 28702   0.0131  49.1895 0001688 325.4638 286.2092  1.00270419 19201
EXPRESS-AM3             
1 28707U 05023A   17173.27673135 -.00000328  00000-0  00000-0 0  9991
2 28707   0.0293 198.5828 0000991 303.2336 331.4259  1.00269163 43945
THAICOM 4               
1 28786U 05028A   17173.90203353 -.00000371  00000-0  00000-0 0  9992
2 28786   0.0139   2.9662 0001904  88.1290 264.3936  1.00271615 43422
GALAXY 14 (G-14)        
1 28790U 05030A   17173.48498451  .00000030  00000-0  00000-0 0  9999
2 28790   0.0011  41.7018 0002155  47.9227 230.8265  1.00269360 43397
ANIK F1R                
1 28868U 05036A   17173.26184969 -.00000080  00000-0  00000-0 0  9999
2 28868   0.0454  72.0766 0002586 353.3791 192.1315  1.00271310 43247
GALAXY 15 (G-15)        
1 28884U 05041A   17173.56788179  .00000072  00000-0  00000-0 0  9999
2 28884   0.0235 308.5692 0001170 133.4030 260.3997  1.00270904 42711
SYRACUSE 3A             
1 28885U 05041B   17173.91716201  .00000120  00000-0  00000-0 0  9990
2 28885   0.0148  78.5555 0003018  18.2415 191.6316  1.00272153 42851
INMARSAT 4-F2           
1 28899U 05044A   17173.10413966  .00000003  00000-0  00000-0 0  9991
2 28899   2.5730  11.9882 0002287  90.5508 269.3218  1.00272028 42593
TELKOM 2                
1 28902U 05046A   17173.75870726 -.00000146  00000-0  00000-0 0  9999
2 28902   0.0046 333.3077 0002144 122.5135 245.4284  1.00272077 42538
SPACEWAY 2              
1 28903U 05046B   17173.55396615 -.00000133  00000-0  00000-0 0  9994
2 28903   0.0489 171.6657 0000224   5.3105 194.2893  1.00268762 18434
INSAT-4A                
1 28911U 05049A   17173.01831153 -.00000171  00000-0  00000-0 0  9990
2 28911   0.0597  95.5364 0001073 202.7579  61.6957  1.00271859 42181
METEOSAT-9 (MSG-2)      
1 28912U 05049B   17173.94976103  .00000050  00000-0  00000-0 0  9993
2 28912   2.2145  71.1034 0000188 266.9070 284.4515  1.00269375 42133
EUTELSAT 172A (GE-23)   
1 28924U 05052A   17173.83462675 -.00000015  00000-0  00000-0 0  9994
2 28924   0.0628  13.2841 0005561  76.8143 293.5483  1.00271545 19445
ECHOSTAR 10             
1 28935U 06003A   17173.62769498 -.00000063  00000-0  00000-0 0  9996
2 28935   0.0227 316.9816 0001424  97.1207 332.6592  1.00270915 41618
HIMAWARI-7 (MTSAT-2)    
1 28937U 06004A   17173.27252133 -.00000250  00000-0  00000-0 0  9991
2 28937   0.0305 139.7562 0003780 318.6029  55.3688  1.00269766 41578
SPAINSAT                
1 28945U 06007A   17173.33139821 -.00000223  00000-0  00000-0 0  9998
2 28945   0.0419 228.8373 0002933 246.3170 244.8765  1.00270866 41312
EUTELSAT HOT BIRD 13E   
1 28946U 06007B   17173.21237563  .00000080  00000-0  00000-0 0  9998
2 28946   0.0443 152.2024 0005085 334.2926 233.5525  1.00268800 41392
JCSAT-5A                
1 29045U 06010A   17173.92224030 -.00000337  00000-0  00000-0 0  9992
2 29045   0.0166 350.2841 0001193 118.9468 266.0793  1.00269363 40871
ASTRA 1KR               
1 29055U 06012A   17173.88243762  .00000111  00000-0  00000-0 0  9992
2 29055   0.0402 284.1587 0001503 240.7105  83.2185  1.00269796 12822
GOES 13                 
1 29155U 06018A   17173.45639596 -.00000256  00000-0  00000-0 0  9997
2 29155   0.1633 272.5072 0003934 179.8145 267.7236  1.00280292 10486
EUTELSAT 113 WEST A     
1 29162U 06020A   17172.56414231 -.00000042  00000-0  00000-0 0  9999
2 29162   0.0296 255.1575 0002736 192.5404 272.3358  1.00271872 40554
THAICOM 5               
1 29163U 06020B   17173.18799271 -.00000127  00000-0  00000-0 0  9993
2 29163   0.0429 271.5951 0002208 192.0760 313.0423  1.00267777 40620
GALAXY 16 (G-16)        
1 29236U 06023A   17173.53274925 -.00000134  00000-0  00000-0 0  9998
2 29236   0.0160 319.7062 0002652 137.0504 266.9188  1.00270668 40367
EUTELSAT HOT BIRD 13B   
1 29270U 06032A   17173.80612542  .00000078  00000-0  00000-0 0  9993
2 29270   0.0665  25.2474 0003848  38.9477 150.1741  1.00269565 39953
JCSAT-3A                
1 29272U 06033A   17173.91549119 -.00000354  00000-0  00000-0 0  9995
2 29272   0.0159 346.9435 0001589  91.1683 290.7321  1.00269868 14834
SYRACUSE 3B             
1 29273U 06033B   17173.85118760 -.00000052  00000-0  00000-0 0  9998
2 29273   0.0152  11.8953 0003612  59.6464 140.8934  1.00272263 39842
KOREASAT 5 (MUGUNGWHA 5)
1 29349U 06034A   17173.89306095 -.00000367  00000-0  00000-0 0  9996
2 29349   0.0217  67.2815 0001356  85.4944 193.0347  1.00269701 39732
ZHONGXING-22A           
1 29398U 06038A   17173.61551691 -.00000330  00000-0  00000-0 0  9998
2 29398   5.7986  57.7277 0002262 140.6389  35.8975  1.00268154 39507
DIRECTV 9S              
1 29494U 06043A   17173.56471924 -.00000121  00000-0  00000-0 0  9993
2 29494   0.0208  56.1132 0003043  35.8443 281.1678  1.00270902 39203
OPTUS D1                
1 29495U 06043B   17173.77018498 -.00000119  00000-0  00000-0 0  9997
2 29495   0.0223  27.8247 0003087  64.1746 256.4018  1.00270438 39210
XM-4 (BLUES)            
1 29520U 06049A   17173.35745581 -.00000029  00000-0  00000-0 0  9996
2 29520   0.0064 108.5131 0000419 276.2722 259.3861  1.00269852 39088
BADR-4                  
1 29526U 06051A   17173.88243762  .00000136  00000-0  00000-0 0  9995
2 29526   0.0455 342.0780 0002386  61.3011 211.5083  1.00272189 18408
FENGYUN 2D              
1 29640U 06053A   17173.90909076 -.00000372  00000-0  10000-3 0  9991
2 29640   4.4634  64.3680 0004947 324.2203 333.7117  1.00272216 38659
WILDBLUE-1              
1 29643U 06054A   17173.51118928 -.00000056  00000-0  00000-0 0  9995
2 29643   0.0335 108.3690 0000700 349.3208 246.0349  1.00271637 38635
AMC-18                  
1 29644U 06054B   17173.62958240 -.00000096  00000-0  00000-0 0  9991
2 29644   0.0114 330.3124 0002334 119.3475 303.0191  1.00270820 38650
MEASAT-3                
1 29648U 06056A   17173.75948778 -.00000250  00000-0  00000-0 0  9998
2 29648   0.0524 146.0968 0003063 329.9573 159.9976  1.00271266 38659
INSAT-4B                
1 30793U 07007A   17173.87063187 -.00000267  00000-0  00000-0 0  9991
2 30793   0.0195 295.4243 0007355 152.1404 230.5934  1.00271226  9304
SKYNET 5A               
1 30794U 07007B   17173.87298444 -.00000280  00000-0  00000-0 0  9993
2 30794   0.0660  13.9136 0003544  79.2761 227.5358  1.00272305 37741
ANIK F3                 
1 31102U 07009A   17173.63048419 -.00000009  00000-0  00000-0 0  9997
2 31102   0.0161 339.1239 0001748 121.6385 278.4938  1.00272735 37438
ASTRA 1L                
1 31306U 07016A   17173.88243762  .00000111  00000-0  00000-0 0  9999
2 31306   0.0548 316.6683 0001165  59.7432 231.6845  1.00270510 12174
GALAXY 17 (G-17)        
1 31307U 07016B   17173.54910400 -.00000182  00000-0  00000-0 0  9992
2 31307   0.0187  23.4321 0002714  67.2001 286.9676  1.00272009 37046
ZHONGXING-6B            
1 31800U 07031A   17173.89529920 -.00000370  00000-0  00000-0 0  9997
2 31800   0.0165 352.5495 0002060 107.6514 248.8535  1.00266472 36564
DIRECTV 10              
1 31862U 07032A   17173.53314792 -.00000110  00000-0  00000-0 0  9998
2 31862   0.0413 217.2542 0000330  69.1092  73.6325  1.00270829 12723
SPACEWAY 3              
1 32018U 07036A   17173.55396615 -.00000159  00000-0  00000-0 0  9995
2 32018   0.0119 158.6953 0000161  67.4107 149.2869  1.00270949 13686
BSAT-3A                 
1 32019U 07036B   17173.94122243 -.00000359  00000-0  00000-0 0  9995
2 32019   0.0546 209.2743 0001782 333.6039 177.1191  1.00270405 17592
INSAT-4CR               
1 32050U 07037A   17173.91716201  .00000116  00000-0  00000-0 0  9991
2 32050   0.0333 273.6783 0002803 178.9027 196.7386  1.00274530 18498
OPTUS D2                
1 32252U 07044A   17173.46368703 -.00000191  00000-0  00000-0 0  9997
2 32252   0.0165 322.2506 0003449 128.6369 138.8828  1.00271379 35672
INTELSAT 11 (IS-11)     
1 32253U 07044B   17173.39216124 -.00000275  00000-0  00000-0 0  9992
2 32253   0.0380 246.6011 0001627 202.9865 279.3578  1.00272412 35622
